SINOD-D 1               
1 40968U 15058E   26068.70671034  .00006216  00000+0  50695-3 0  9998
2 40968  64.7759 210.2419 0117281  93.1753 268.2787 14.95054547101785
FLOCK 4H-33             
1 66736U 25276BY  26068.75632564  .00008618  00000+0  40674-3 0  9996
2 66736  97.4288 144.1705 0000956 288.4074  71.7057 15.19689011 15333
